STARLINK-30309          
1 57632U 23122A   23350.77774334  .00003107  00000+0  24496-3 0  9996
2 57632  43.0026 197.6037 0001203 273.8386  86.2319 15.02538493 19724
STARLINK-30306          
1 57633U 23122B   23350.77442392  .00001271  00000+0  10921-3 0  9991
2 57633  43.0022 197.5784 0001157 278.2991  81.7720 15.02515952 19730
STARLINK-30323          
1 57634U 23122C   23350.78254181  .00011665  00000+0  58558-3 0  9996
2 57634  43.0006 184.8973 0001713 282.6277  77.4379 15.17281326 19874
STARLINK-30329          
1 57635U 23122D   23350.03983052  .00002840  00000+0  22536-3 0  9993
2 57635  43.0005 201.5266 0002244 246.7319 113.3287 15.02515163 19639
STARLINK-30330          
1 57636U 23122E   23350.76777291  .00000330  00000+0  39495-4 0  9995
2 57636  43.0026 197.5293 0001361 291.1499  68.9198 15.02526852 19733
STARLINK-30311          
1 57637U 23122F   23350.09632248  .00005487  00000+0  42090-3 0  9996
2 57637  43.0000 201.0902 0001192 258.2370 101.8338 15.02540556 19648
STARLINK-30328          
1 57638U 23122G   23350.51842604  .00000194  00000+0  28222-4 0  9995
2 57638  42.9991 185.4531 0001720 296.1694  63.8972 15.04495550 19877
STARLINK-30326          
1 57639U 23122H   23350.78095765  .00005411  00000+0  41532-3 0  9998
2 57639  42.9996 196.7639 0001058 255.4350 104.6375 15.02535870 19743
STARLINK-30324          
1 57640U 23122J   23350.08966134  .00002821  00000+0  22386-3 0  9998
2 57640  43.0001 201.0421 0001751 267.4763  92.5879 15.02534758 19641
STARLINK-30312          
1 57641U 23122K   23350.75112118  .00010956  00000+0  82425-3 0  9996
2 57641  43.0006 197.4029 0001598 257.2190 102.8474 15.02561721 19724
STARLINK-30263          
1 57642U 23122L   23350.74445403  .00000287  00000+0  36299-4 0  9997
2 57642  43.0022 197.3526 0001286 272.7128  87.3567 15.02534811 19721
STARLINK-30280          
1 57643U 23122M   23350.80095314 -.00000517  00000+0 -23182-4 0  9992
2 57643  43.0019 196.9174 0001253 263.2398  96.8301 15.02527939 19735
STARLINK-30247          
1 57644U 23122N   23350.80426568  .00000575  00000+0  57625-4 0  9993
2 57644  43.0020 196.9456 0001191 263.1926  96.8781 15.02543302 19732
STARLINK-30277          
1 57645U 23122P   23350.80760297  .00001254  00000+0  10790-3 0  9990
2 57645  43.0013 196.9673 0001103 245.1412 114.9316 15.02537753 19749
STARLINK-30265          
1 57646U 23122Q   23350.74778156  .00000503  00000+0  52291-4 0  9996
2 57646  43.0023 197.3770 0001062 247.8298 112.2432 15.02538503 19721
STARLINK-30286          
1 57647U 23122R   23350.79760370  .00000424  00000+0  46441-4 0  9993
2 57647  43.0017 196.8911 0001262 256.7451 103.3251 15.02540211 19682
STARLINK-30243          
1 57648U 23122S   23349.92007887  .00000275  00000+0  35459-4 0  9995
2 57648  43.0018 201.4892 0001180 257.3913 102.6797 15.02534722 19625
STARLINK-30293          
1 57649U 23122T   23350.77821467  .00025376  00000+0  69903-3 0  9998
2 57649  42.9953 176.2669 0016301 281.8984  78.0043 15.36530959 19977
STARLINK-30299          
1 57650U 23122U   23350.79428303  .00000312  00000+0  38191-4 0  9993
2 57650  43.0006 196.8672 0001181 273.0830  86.9877 15.02537400 19744
STARLINK-30294          
1 57651U 23122V   23350.54577723  .00002240  00000+0  12650-3 0  9991
2 57651  43.0001 187.4108 0001347 256.1490 103.9207 15.15965520 19848
STARLINK-30276          
1 57652U 23122W   23350.78761867  .00000480  00000+0  50598-4 0  9990
2 57652  43.0018 196.8154 0001232 259.7642 100.3061 15.02540040 19732
STARLINK-30289          
1 57653U 23122X   23350.91667824  .00001538  00000+0  12263-3 0  9995
2 57653  43.0005 183.6103 0001638 276.5435 312.4853 15.04485049 19918
GAOFEN-12 04            
1 57654U 23123A   23350.83586336  .00001711  00000+0  22750-3 0  9991
2 57654  97.9105 265.7009 0002666  95.6319 264.5198 14.81009549 17488
STARLINK-30267          
1 57663U 23124A   23350.37250557  .00000885  00000+0  57263-4 0  9993
2 57663  53.0567  22.5718 0002039  94.8665 265.2562 15.18722703 19006
STARLINK-30302          
1 57664U 23124B   23350.37618321 -.00001487  00000+0 -55669-4 0  9990
2 57664  53.0563  24.0087 0001577 102.7269 257.3902 15.18702098 18985
STARLINK-30298          
1 57665U 23124C   23350.37834854  .00001293  00000+0  76617-4 0  9991
2 57665  53.0564  24.0194 0001665  98.3880 261.7303 15.18738657 18987
STARLINK-30301          
1 57666U 23124D   23350.31658017 -.00000826  00000+0 -24160-4 0  9990
2 57666  53.0593 359.7698 0001983 104.6961 255.4253 15.18718273 19315
STARLINK-30275          
1 57667U 23124E   23350.37395754  .00005870  00000+0  29404-3 0  9990
2 57667  53.0541  23.9918 0001911 103.5681 256.5526 15.18742514 18984
STARLINK-30278          
1 57668U 23124F   23350.37177252  .00006165  00000+0  30811-3 0  9994
2 57668  53.0538  23.9840 0002115  80.9758 279.1476 15.18738906 18980
STARLINK-30271          
1 57669U 23124G   23350.36737091  .00003686  00000+0  19032-3 0  9994
2 57669  53.0534  23.9521 0002399  84.0123 276.1145 15.18748993 18985
STARLINK-30322          
1 57670U 23124H   23350.41343705  .00005731  00000+0  28755-3 0  9992
2 57670  53.0547  22.8315 0002074  62.2830 297.8375 15.18733577 19015
STARLINK-30296          
1 57671U 23124J   23350.32452888 -.00001392  00000+0 -51131-4 0  9992
2 57671  53.0556  21.5576 0001751 104.4619 255.6570 15.18710394 19017
STARLINK-30274          
1 57672U 23124K   23350.33756569  .00013596  00000+0  66014-3 0  9999
2 57672  53.0533  23.7568 0001431  72.4737 287.6414 15.18758475 18987
STARLINK-30316          
1 57673U 23124L   23350.33668186 -.00005735  00000+0 -25808-3 0  9991
2 57673  53.0550  23.7578 0001443  93.5288 266.5871 15.18706115 18983
STARLINK-30314          
1 57674U 23124M   23350.42441768  .00009251  00000+0  45442-3 0  9998
2 57674  53.0529  23.5954 0002306  66.3449 293.7788 15.18749191 18892
STARLINK-30317          
1 57675U 23124N   23350.36080556  .00019104  00000+0  92089-3 0  9993
2 57675  53.0516  23.9114 0001984  59.3588 300.7602 15.18753941 18980
STARLINK-30313          
1 57676U 23124P   23350.33449891 -.00002152  00000+0 -87324-4 0  9996
2 57676  53.0561  23.7465 0001496 109.5951 250.5204 15.18699441 18982
STARLINK-30303          
1 57677U 23124Q   23350.33227662  .00002163  00000+0  11795-3 0  9995
2 57677  53.0562  23.7316 0001669 102.1683 257.9499 15.18743789 18984
STARLINK-30320          
1 57678U 23124R   23350.42002937  .00010426  00000+0  51013-3 0  9990
2 57678  53.0515  23.5744 0001680  85.3567 274.7620 15.18749786 18999
STARLINK-30321          
1 57679U 23124S   23350.40904853  .00009239  00000+0  45375-3 0  9991
2 57679  53.0537  23.4986 0001530  92.2716 267.8453 15.18757067 18996
STARLINK-30283          
1 57680U 23124T   23350.42222202  .00002926  00000+0  15431-3 0  9992
2 57680  53.0532  22.8800 0002476  64.1198 296.0051 15.18724207 19004
STARLINK-30273          
1 57681U 23124U   23350.41784774  .00008218  00000+0  40560-3 0  9990
2 57681  53.0518  23.5560 0001455  93.6779 266.4382 15.18732554 18997
STARLINK-30297          
1 57682U 23124V   23350.39590892 -.00004361  00000+0 -19254-3 0  9997
2 57682  53.0556  23.4158 0001495 102.3981 257.7181 15.18708777 18999
STARLINK-30295          
1 57683U 23124W   23350.38059190  .00005284  00000+0  26636-3 0  9993
2 57683  53.0573  20.4594 0001991 122.5510 237.5677 15.18727615 19037
PROGRESS-MS 24          
1 57691U 23125A   23349.77942848  .00011909  00000+0  21312-3 0  9992
2 57691  51.6409 149.0630 0002164  26.5806 105.6517 15.50425701429952
CAPELLA-11 (ACADIA)     
1 57693U 23126A   23350.79738518  .00004384  00000+0  64957-3 0  9997
2 57693  53.0106 158.0829 0005387 246.4203 113.6207 14.76800250 16958
JILIN-1 KUANFU 02A      
1 57696U 23127A   23350.81686541  .00006396  00000+0  38328-3 0  9990
2 57696  97.5882  75.3159 0011307 255.6721 104.3254 15.11280508 17158
CREW DRAGON 7           
1 57697U 23128A   23349.77942848  .00011909  00000+0  21312-3 0  9991
2 57697  51.6409 149.0630 0002164  26.5806 105.6517 15.50425701429958
STARLINK-30288          
1 57698U 23129A   23349.97936296 -.00000444  00000+0 -17793-4 0  9998
2 57698  42.9998 226.9544 0001302 252.4048 107.6652 15.02533436 18100
STARLINK-30347          
1 57699U 23129B   23350.79427837 -.00002909  00000+0 -13714-3 0  9993
2 57699  43.0004 210.8157 0001048 245.1694 114.9044 15.15947083 18361
STARLINK-30332          
1 57700U 23129C   23350.77376345  .00001717  00000+0  14209-3 0  9995
2 57700  43.0012 222.5944 0001098 268.9635  91.1082 15.02542598 18085
STARLINK-30345          
1 57701U 23129D   23349.96282978  .00006324  00000+0  48290-3 0  9999
2 57701  42.9992 227.6966 0002910 237.7055 122.3506 15.02527554 17953
STARLINK-30333          
1 57702U 23129E   23350.68742711 -.00000771  00000+0 -42022-4 0  9997
2 57702  43.0019 223.6726 0001447 245.6166 114.4525 15.02544795 18209
STARLINK-30336          
1 57703U 23129F   23350.69075776  .00001822  00000+0  14991-3 0  9998
2 57703  43.0009 223.6932 0001014 248.3828 111.6906 15.02537559 17901
STARLINK-30346          
1 57704U 23129G   23350.74724985  .00001622  00000+0  13507-3 0  9998
2 57704  43.0015 223.2583 0000962 241.7679 118.3066 15.02538950 18075
STARLINK-30342          
1 57705U 23129H   23350.10565400  .00000186  00000+0  28860-4 0  9997
2 57705  42.9993 226.1814 0002429 209.1414 150.9293 15.02535110 18128
STARLINK-30337          
1 57706U 23129J   23350.77115868  .00173786  00000+0  38467-2 0  9999
2 57706  42.9946 203.8144 0019539 259.6787 100.1867 15.42235393 18306
STARLINK-30327          
1 57707U 23129K   23350.78804488  .00001496  00000+0  92463-4 0  9990
2 57707  43.0017 213.3782 0001280 274.1613  85.9088 15.14319162 18194
STARLINK-30315          
1 57708U 23129L   23350.80372397  .00002179  00000+0  17629-3 0  9992
2 57708  43.0012 222.8263 0000970 295.4079  64.6663 15.02549651 18228
